{"type": "FeatureCollection", "features": [ {"type": "Feature", "properties": {"norad_id": 39541, "name": "FENGYUN 1C DEB", "group": "fengyun-1c-debris", "lat": -4.834899596140864, "lon": 42.76299454855444, "alt_km": 787.4099415543333, "timestamp": "2025-12-26T03:50:12.383750+00:00", "meta": {"OBJECT_NAME": "FENGYUN 1C DEB", "OBJECT_ID": "1999-025EWJ", "EPOCH": "2025-12-14T09:31:50.250432", "MEAN_MOTION": 14.20397112, "ECCENTRICITY": 0.00718166, "INCLINATION": 98.681, "RA_OF_ASC_NODE": 30.4764, "ARG_OF_PERICENTER": 68.7411, "MEAN_ANOMALY": 292.1416, "EPHEMERIS_TYPE": 0, "CLASSIFICATION_TYPE": "U", "NORAD_CAT_ID": 39541, "ELEMENT_SET_NO": 999, "REV_AT_EPOCH": 59026, "BSTAR": 0.00071004371, "MEAN_MOTION_DOT": 1.519e-05, "MEAN_MOTION_DDOT": 0}, "tle": {"line1": "1 39541U 99025EWJ 25348.39710938  .00001519  00000+0  71004-3 0  9999", "line2": "2 39541  98.6810  30.4764 0071816  68.7411 292.1416 14.20397112590267"}}, "geometry": {"type": "Point", "coordinates": [42.76299454855444, -4.834899596140864]}}, {"type": "Feature", "properties": {"norad_id": 39543, "name": "FENGYUN 1C DEB", "group": "fengyun-1c-debris", "lat": -80.32177714811469, "lon": 140.23142365701696, "alt_km": 1239.5236341487162, "timestamp": "2025-12-26T03:50:12.383760+00:00", "meta": {"OBJECT_NAME": "FENGYUN 1C DEB", "OBJECT_ID": "1999-025EWL", "EPOCH": "2025-12-22T19:42:07.379136", "MEAN_MOTION": 13.70212175, "ECCENTRICITY": 0.03390824, "INCLINATION": 99.0408, "RA_OF_ASC_NODE": 26.0838, "ARG_OF_PERICENTER": 115.719, "MEAN_ANOMALY": 247.9374, "EPHEMERIS_TYPE": 0, "CLASSIFICATION_TYPE": "U", "NORAD_CAT_ID": 39543, "ELEMENT_SET_NO": 999, "REV_AT_EPOCH": 49323, "BSTAR": 0.00074325166, "MEAN_MOTION_DOT": 9.45e-06, "MEAN_MOTION_DDOT": 0}, "tle": {"line1": "1 39543U 99025EWL 25356.82091874  .00000945  00000+0  74325-3 0  9990", "line2": "2 39543  99.0408  26.0838 0339082 115.7190 247.9374 13.70212175493238"}}, "geometry": {"type": "Point", "coordinates": [140.23142365701696, -80.32177714811469]}}, {"type": "Feature", "properties": {"norad_id": 39544, "name": "FENGYUN 1C DEB", "group": "fengyun-1c-debris", "lat": -39.92770624956504, "lon": 51.42593097144036, "alt_km": 895.2911291436058, "timestamp": "2025-12-26T03:50:12.383770+00:00", "meta": {"OBJECT_NAME": "FENGYUN 1C DEB", "OBJECT_ID": "1999-025EWM", "EPOCH": "2025-12-18T10:16:20.672256", "MEAN_MOTION": 14.05533723, "ECCENTRICITY": 0.00544071, "INCLINATION": 98.7417, "RA_OF_ASC_NODE": 231.3683, "ARG_OF_PERICENTER": 353.4562, "MEAN_ANOMALY": 6.589, "EPHEMERIS_TYPE": 0, "CLASSIFICATION_TYPE": "U", "NORAD_CAT_ID": 39544, "ELEMENT_SET_NO": 999, "REV_AT_EPOCH": 56935, "BSTAR": 0.00032895311, "MEAN_MOTION_DOT": 4.99e-06, "MEAN_MOTION_DDOT": 0}, "tle": {"line1": "1 39544U 99025EWM 25352.42801704  .00000499  00000+0  32895-3 0  9994", "line2": "2 39544  98.7417 231.3683 0054407 353.4562   6.5890 14.05533723569356"}}, "geometry": {"type": "Point", "coordinates": [51.42593097144036, -39.92770624956504]}}, {"type": "Feature", "properties": {"norad_id": 40688, "name": "FENGYUN 1C DEB", "group": "fengyun-1c-debris", "lat": -28.025768443635027, "lon": -35.71540225166272, "alt_km": 1042.9655744481743, "timestamp": "2025-12-26T03:50:12.383780+00:00", "meta": {"OBJECT_NAME": "FENGYUN 1C DEB", "OBJECT_ID": "1999-025EWU", "EPOCH": "2025-12-21T04:50:00.684384", "MEAN_MOTION": 13.83836101, "ECCENTRICITY": 0.014203, "INCLINATION": 98.9696, "RA_OF_ASC_NODE": 144.3746, "ARG_OF_PERICENTER": 8.7318, "MEAN_ANOMALY": 351.626, "EPHEMERIS_TYPE": 0, "CLASSIFICATION_TYPE": "U", "NORAD_CAT_ID": 40688, "ELEMENT_SET_NO": 999, "REV_AT_EPOCH": 30034, "BSTAR": 0.00031609, "MEAN_MOTION_DOT": 3.37e-06, "MEAN_MOTION_DDOT": 0}, "tle": {"line1": "1 40688U 99025EWU 25355.20139681  .00000337  00000+0  31609-3 0  9995", "line2": "2 40688  98.9696 144.3746 0142030   8.7318 351.6260 13.83836101300348"}}, "geometry": {"type": "Point", "coordinates": [-35.71540225166272, -28.025768443635027]}}, {"type": "Feature", "properties": {"norad_id": 40689, "name": "FENGYUN 1C DEB", "group": "fengyun-1c-debris", "lat": 76.52843159289681, "lon": 139.47906909107243, "alt_km": 817.3819059442685, "timestamp": "2025-12-26T03:50:12.383791+00:00", "meta": {"OBJECT_NAME": "FENGYUN 1C DEB", "OBJECT_ID": "1999-025EWV", "EPOCH": "2025-12-15T14:00:17.692704", "MEAN_MOTION": 13.64713186, "ECCENTRICITY": 0.03107205, "INCLINATION": 99.1258, "RA_OF_ASC_NODE": 267.381, "ARG_OF_PERICENTER": 93.9269, "MEAN_ANOMALY": 269.7453, "EPHEMERIS_TYPE": 0, "CLASSIFICATION_TYPE": "U", "NORAD_CAT_ID": 40689, "ELEMENT_SET_NO": 999, "REV_AT_EPOCH": 54922, "BSTAR": 0.0014500265, "MEAN_MOTION_DOT": 1.584e-05, "MEAN_MOTION_DDOT": 0}, "tle": {"line1": "1 40689U 99025EWV 25349.58353811  .00001584  00000+0  14500-2 0  9998", "line2": "2 40689  99.1258 267.3810 0310720  93.9269 269.7453 13.64713186549229"}}, "geometry": {"type": "Point", "coordinates": [139.47906909107243, 76.52843159289681]}}, {"type": "Feature", "properties": {"norad_id": 40691, "name": "FENGYUN 1C DEB", "group": "fengyun-1c-debris", "lat": -13.146279749736712, "lon": 34.20245886407773, "alt_km": 903.1674691394155, "timestamp": "2025-12-26T03:50:12.383801+00:00", "meta": {"OBJECT_NAME": "FENGYUN 1C DEB", "OBJECT_ID": "1999-025EWX", "EPOCH": "2025-12-03T08:15:02.306016", "MEAN_MOTION": 13.89944729, "ECCENTRICITY": 0.0128434, "INCLINATION": 99.0573, "RA_OF_ASC_NODE": 9.8547, "ARG_OF_PERICENTER": 336.6089, "MEAN_ANOMALY": 22.9259, "EPHEMERIS_TYPE": 0, "CLASSIFICATION_TYPE": "U", "NORAD_CAT_ID": 40691, "ELEMENT_SET_NO": 999, "REV_AT_EPOCH": 55305, "BSTAR": 0.00023937, "MEAN_MOTION_DOT": 2.71e-06, "MEAN_MOTION_DDOT": 0}, "tle": {"line1": "1 40691U 99025EWX 25337.34377669  .00000271  00000+0  23937-3 0  9996", "line2": "2 40691  99.0573   9.8547 0128434 336.6089  22.9259 13.89944729553058"}}, "geometry": {"type": "Point", "coordinates": [34.20245886407773, -13.146279749736712]}}, {"type": "Feature", "properties": {"norad_id": 40695, "name": "FENGYUN 1C DEB", "group": "fengyun-1c-debris", "lat": 62.46653327936933, "lon": -41.41915966137274, "alt_km": 915.1423539207681, "timestamp": "2025-12-26T03:50:12.383811+00:00", "meta": {"OBJECT_NAME": "FENGYUN 1C DEB", "OBJECT_ID": "1999-025EXB", "EPOCH": "2025-12-22T14:53:14.266464", "MEAN_MOTION": 14.50985865, "ECCENTRICITY": 0.02804135, "INCLINATION": 99.4259, "RA_OF_ASC_NODE": 116.031, "ARG_OF_PERICENTER": 303.6454, "MEAN_ANOMALY": 53.8273, "EPHEMERIS_TYPE": 0, "CLASSIFICATION_TYPE": "U", "NORAD_CAT_ID": 40695, "ELEMENT_SET_NO": 999, "REV_AT_EPOCH": 32009, "BSTAR": 0.00019428885, "MEAN_MOTION_DOT": 1.201e-05, "MEAN_MOTION_DDOT": 0}, "tle": {"line1": "1 40695U 99025EXB 25356.62030401  .00001201  00000+0  19429-3 0  9997", "line2": "2 40695  99.4259 116.0310 0280413 303.6454  53.8273 14.50985865320092"}}, "geometry": {"type": "Point", "coordinates": [-41.41915966137274, 62.46653327936933]}}, {"type": "Feature", "properties": {"norad_id": 40696, "name": "FENGYUN 1C DEB", "group": "fengyun-1c-debris", "lat": -76.90924701244238, "lon": 123.85945433371312, "alt_km": 883.3146369306323, "timestamp": "2025-12-26T03:50:12.383822+00:00", "meta": {"OBJECT_NAME": "FENGYUN 1C DEB", "OBJECT_ID": "1999-025EXC", "EPOCH": "2025-12-23T05:49:08.601888", "MEAN_MOTION": 13.96747225, "ECCENTRICITY": 0.00794074, "INCLINATION": 98.9575, "RA_OF_ASC_NODE": 343.7271, "ARG_OF_PERICENTER": 328.6574, "MEAN_ANOMALY": 30.9869, "EPHEMERIS_TYPE": 0, "CLASSIFICATION_TYPE": "U", "NORAD_CAT_ID": 40696, "ELEMENT_SET_NO": 999, "REV_AT_EPOCH": 55826, "BSTAR": 0.00024966024, "MEAN_MOTION_DOT": 3.12e-06, "MEAN_MOTION_DDOT": 0}, "tle": {"line1": "1 40696U 99025EXC 25357.24246067  .00000312  00000+0  24966-3 0  9998", "line2": "2 40696  98.9575 343.7271 0079407 328.6574  30.9869 13.96747225558266"}}, "geometry": {"type": "Point", "coordinates": [123.85945433371312, -76.90924701244238]}}, {"type": "Feature", "properties": {"norad_id": 41003, "name": "FENGYUN 1C DEB", "group": "fengyun-1c-debris", "lat": -62.74862727028273, "lon": 82.8106324624956, "alt_km": 609.5689965837282, "timestamp": "2025-12-26T03:50:12.383832+00:00", "meta": {"OBJECT_NAME": "FENGYUN 1C DEB", "OBJECT_ID": "1999-025EXH", "EPOCH": "2025-12-23T12:47:40.559712", "MEAN_MOTION": 14.73333109, "ECCENTRICITY": 0.00681083, "INCLINATION": 98.9669, "RA_OF_ASC_NODE": 277.7627, "ARG_OF_PERICENTER": 258.0215, "MEAN_ANOMALY": 101.335, "EPHEMERIS_TYPE": 0, "CLASSIFICATION_TYPE": "U", "NORAD_CAT_ID": 41003, "ELEMENT_SET_NO": 999, "REV_AT_EPOCH": 52579, "BSTAR": 0.0041297781, "MEAN_MOTION_DOT": 0.00027775, "MEAN_MOTION_DDOT": 0}, "tle": {"line1": "1 41003U 99025EXH 25357.53310833  .00027775  00000+0  41298-2 0  9994", "line2": "2 41003  98.9669 277.7627 0068108 258.0215 101.3350 14.73333109525796"}}, "geometry": {"type": "Point", "coordinates": [82.8106324624956, -62.74862727028273]}}, {"type": "Feature", "properties": {"norad_id": 41006, "name": "FENGYUN 1C DEB", "group": "fengyun-1c-debris", "lat": -29.95236004015565, "lon": 47.92432152748401, "alt_km": 1031.5528021934406, "timestamp": "2025-12-26T03:50:12.383842+00:00", "meta": {"OBJECT_NAME": "FENGYUN 1C DEB", "OBJECT_ID": "1999-025EXL", "EPOCH": "2025-12-19T21:45:46.059840", "MEAN_MOTION": 13.85407302, "ECCENTRICITY": 0.0190575, "INCLINATION": 102.3676, "RA_OF_ASC_NODE": 226.9637, "ARG_OF_PERICENTER": 351.9089, "MEAN_ANOMALY": 7.8995, "EPHEMERIS_TYPE": 0, "CLASSIFICATION_TYPE": "U", "NORAD_CAT_ID": 41006, "ELEMENT_SET_NO": 999, "REV_AT_EPOCH": 57588, "BSTAR": 0.0020631, "MEAN_MOTION_DOT": 2.639e-05, "MEAN_MOTION_DDOT": 0}, "tle": {"line1": "1 41006U 99025EXL 25353.90678310  .00002639  00000+0  20631-2 0  9991", "line2": "2 41006 102.3676 226.9637 0190575 351.9089   7.8995 13.85407302575889"}}, "geometry": {"type": "Point", "coordinates": [47.92432152748401, -29.95236004015565]}}]}